[Satellite]
VERSION=1.1
NAME=CICERO 10
NICKNAME=CICERO 10
TLE1=1 43690U 18088A   22342.12077844  .00014079  00000+0  51147-3 0  9994
TLE2=2 43690  85.0363 200.8352 0010506 217.4950 142.5564 15.28111149226245
STATUS=0
